{"type": "FeatureCollection", "features": [ {"type": "Feature", "properties": {"norad_id": 43010, "name": "FENGYUN 3D", "group": "weather", "lat": -25.049829396184457, "lon": -29.049234151599222, "alt_km": 833.0647395480964, "timestamp": "2025-12-26T04:40:05.429859+00:00", "meta": {"OBJECT_NAME": "FENGYUN 3D", "OBJECT_ID": "2017-072A", "EPOCH": "2025-12-25T22:01:18.016032", "MEAN_MOTION": 14.19686582, "ECCENTRICITY": 0.00015821, "INCLINATION": 98.9915, "RA_OF_ASC_NODE": 326.4259, "ARG_OF_PERICENTER": 146.3576, "MEAN_ANOMALY": 213.77, "EPHEMERIS_TYPE": 0, "CLASSIFICATION_TYPE": "U", "NORAD_CAT_ID": 43010, "ELEMENT_SET_NO": 999, "REV_AT_EPOCH": 42040, "BSTAR": -5.8885081e-05, "MEAN_MOTION_DOT": -1.7e-06, "MEAN_MOTION_DDOT": 0}, "tle": {"line1": "1 43010U 17072A   25359.91756963 -.00000170  00000+0 -58885-4 0  9992", "line2": "2 43010  98.9915 326.4259 0001582 146.3576 213.7700 14.19686582420400"}}, "geometry": {"type": "Point", "coordinates": [-29.049234151599222, -25.049829396184457]}}, {"type": "Feature", "properties": {"norad_id": 43013, "name": "NOAA 20 (JPSS-1)", "group": "weather", "lat": 59.61777841987814, "lon": 131.5961539192136, "alt_km": 820.2071564284361, "timestamp": "2025-12-26T04:40:05.429876+00:00", "meta": {"OBJECT_NAME": "NOAA 20 (JPSS-1)", "OBJECT_ID": "2017-073A", "EPOCH": "2025-12-25T21:20:32.635968", "MEAN_MOTION": 14.19529186, "ECCENTRICITY": 0.00020656, "INCLINATION": 98.7616, "RA_OF_ASC_NODE": 296.0432, "ARG_OF_PERICENTER": 68.4824, "MEAN_ANOMALY": 291.6572, "EPHEMERIS_TYPE": 0, "CLASSIFICATION_TYPE": "U", "NORAD_CAT_ID": 43013, "ELEMENT_SET_NO": 999, "REV_AT_EPOCH": 41988, "BSTAR": 6.5237476e-05, "MEAN_MOTION_DOT": 9.3e-07, "MEAN_MOTION_DDOT": 0}, "tle": {"line1": "1 43013U 17073A   25359.88926662  .00000093  00000+0  65237-4 0  9998", "line2": "2 43013  98.7616 296.0432 0002065  68.4824 291.6572 14.19529186419889"}}, "geometry": {"type": "Point", "coordinates": [131.5961539192136, 59.61777841987814]}}, {"type": "Feature", "properties": {"norad_id": 43226, "name": "GOES 17", "group": "weather", "lat": -0.09754248080117364, "lon": 75.47640679221254, "alt_km": 35798.18969275684, "timestamp": "2025-12-26T04:40:05.429896+00:00", "meta": {"OBJECT_NAME": "GOES 17", "OBJECT_ID": "2018-022A", "EPOCH": "2025-12-25T12:38:22.122816", "MEAN_MOTION": 1.00271863, "ECCENTRICITY": 0.0003138, "INCLINATION": 0.4887, "RA_OF_ASC_NODE": 89.0412, "ARG_OF_PERICENTER": 191.0543, "MEAN_ANOMALY": 274.2832, "EPHEMERIS_TYPE": 0, "CLASSIFICATION_TYPE": "U", "NORAD_CAT_ID": 43226, "ELEMENT_SET_NO": 999, "REV_AT_EPOCH": 2868, "BSTAR": 0, "MEAN_MOTION_DOT": -1.61e-06, "MEAN_MOTION_DDOT": 0}, "tle": {"line1": "1 43226U 18022A   25359.52664494 -.00000161  00000+0  00000+0 0  9991", "line2": "2 43226   0.4887  89.0412 0003138 191.0543 274.2832  1.00271863 28688"}}, "geometry": {"type": "Point", "coordinates": [75.47640679221254, -0.09754248080117364]}}, {"type": "Feature", "properties": {"norad_id": 43491, "name": "FENGYUN 2H", "group": "weather", "lat": 0.7365095599045491, "lon": -115.69265519403467, "alt_km": 35776.1384720064, "timestamp": "2025-12-26T04:40:05.429916+00:00", "meta": {"OBJECT_NAME": "FENGYUN 2H", "OBJECT_ID": "2018-050A", "EPOCH": "2025-12-25T23:59:15.679392", "MEAN_MOTION": 1.00270295, "ECCENTRICITY": 0.00024376, "INCLINATION": 2.5829, "RA_OF_ASC_NODE": 81.1887, "ARG_OF_PERICENTER": 166.8627, "MEAN_ANOMALY": 285.8473, "EPHEMERIS_TYPE": 0, "CLASSIFICATION_TYPE": "U", "NORAD_CAT_ID": 43491, "ELEMENT_SET_NO": 999, "REV_AT_EPOCH": 2770, "BSTAR": 0, "MEAN_MOTION_DOT": -1.08e-06, "MEAN_MOTION_DDOT": 0}, "tle": {"line1": "1 43491U 18050A   25359.99948703 -.00000108  00000+0  00000+0 0  9996", "line2": "2 43491   2.5829  81.1887 0002437 166.8627 285.8473  1.00270295 27703"}}, "geometry": {"type": "Point", "coordinates": [-115.69265519403467, 0.7365095599045491]}}, {"type": "Feature", "properties": {"norad_id": 43689, "name": "METOP-C", "group": "weather", "lat": -5.207151369273228, "lon": 58.555345887162346, "alt_km": 823.4870939654138, "timestamp": "2025-12-26T04:40:05.429933+00:00", "meta": {"OBJECT_NAME": "METOP-C", "OBJECT_ID": "2018-087A", "EPOCH": "2025-12-25T21:56:08.140704", "MEAN_MOTION": 14.21489276, "ECCENTRICITY": 5.929e-05, "INCLINATION": 98.6911, "RA_OF_ASC_NODE": 57.4805, "ARG_OF_PERICENTER": 14.2051, "MEAN_ANOMALY": 345.9143, "EPHEMERIS_TYPE": 0, "CLASSIFICATION_TYPE": "U", "NORAD_CAT_ID": 43689, "ELEMENT_SET_NO": 999, "REV_AT_EPOCH": 37021, "BSTAR": 7.9146155e-05, "MEAN_MOTION_DOT": 1.29e-06, "MEAN_MOTION_DDOT": 0}, "tle": {"line1": "1 43689U 18087A   25359.91398311  .00000129  00000+0  79146-4 0  9995", "line2": "2 43689  98.6911  57.4805 0000592  14.2051 345.9143 14.21489276370210"}}, "geometry": {"type": "Point", "coordinates": [58.555345887162346, -5.207151369273228]}}, {"type": "Feature", "properties": {"norad_id": 43823, "name": "GEO-KOMPSAT-2A", "group": "weather", "lat": 0.006631553191420329, "lon": -66.80865852190603, "alt_km": 35787.90261366449, "timestamp": "2025-12-26T04:40:05.429966+00:00", "meta": {"OBJECT_NAME": "GEO-KOMPSAT-2A", "OBJECT_ID": "2018-100A", "EPOCH": "2025-12-25T12:13:38.614080", "MEAN_MOTION": 1.00268534, "ECCENTRICITY": 2.51e-05, "INCLINATION": 0.0434, "RA_OF_ASC_NODE": 172.7377, "ARG_OF_PERICENTER": 259.9479, "MEAN_ANOMALY": 333.2359, "EPHEMERIS_TYPE": 0, "CLASSIFICATION_TYPE": "U", "NORAD_CAT_ID": 43823, "ELEMENT_SET_NO": 999, "REV_AT_EPOCH": 2588, "BSTAR": 0, "MEAN_MOTION_DOT": -3.22e-06, "MEAN_MOTION_DDOT": 0}, "tle": {"line1": "1 43823U 18100A   25359.50947470 -.00000322  00000+0  00000+0 0  9996", "line2": "2 43823   0.0434 172.7377 0000251 259.9479 333.2359  1.00268534 25880"}}, "geometry": {"type": "Point", "coordinates": [-66.80865852190603, 0.006631553191420329]}}, {"type": "Feature", "properties": {"norad_id": 44387, "name": "METEOR-M2 2", "group": "weather", "lat": -24.78138751840412, "lon": 155.94052709852, "alt_km": 816.1799016988243, "timestamp": "2025-12-26T04:40:05.429984+00:00", "meta": {"OBJECT_NAME": "METEOR-M2 2", "OBJECT_ID": "2019-038A", "EPOCH": "2025-12-25T22:39:03.187296", "MEAN_MOTION": 14.24296441, "ECCENTRICITY": 0.0001821, "INCLINATION": 98.8989, "RA_OF_ASC_NODE": 339.8347, "ARG_OF_PERICENTER": 124.1577, "MEAN_ANOMALY": 235.9774, "EPHEMERIS_TYPE": 0, "CLASSIFICATION_TYPE": "U", "NORAD_CAT_ID": 44387, "ELEMENT_SET_NO": 999, "REV_AT_EPOCH": 33663, "BSTAR": 4.5826912e-05, "MEAN_MOTION_DOT": 6e-07, "MEAN_MOTION_DDOT": 0}, "tle": {"line1": "1 44387U 19038A   25359.94378689  .00000060  00000+0  45827-4 0  9990", "line2": "2 44387  98.8989 339.8347 0001821 124.1577 235.9774 14.24296441336630"}}, "geometry": {"type": "Point", "coordinates": [155.94052709852, -24.78138751840412]}}, {"type": "Feature", "properties": {"norad_id": 47719, "name": "ARKTIKA-M 1", "group": "weather", "lat": 60.59266873325913, "lon": 145.93562924767306, "alt_km": 36993.73188325979, "timestamp": "2025-12-26T04:40:05.430005+00:00", "meta": {"OBJECT_NAME": "ARKTIKA-M 1", "OBJECT_ID": "2021-016A", "EPOCH": "2025-12-25T00:52:45.922368", "MEAN_MOTION": 2.00630507, "ECCENTRICITY": 0.7210339, "INCLINATION": 63.177, "RA_OF_ASC_NODE": 82.3163, "ARG_OF_PERICENTER": 269.1694, "MEAN_ANOMALY": 15.5374, "EPHEMERIS_TYPE": 0, "CLASSIFICATION_TYPE": "U", "NORAD_CAT_ID": 47719, "ELEMENT_SET_NO": 999, "REV_AT_EPOCH": 3529, "BSTAR": 0, "MEAN_MOTION_DOT": -4.3e-07, "MEAN_MOTION_DDOT": 0}, "tle": {"line1": "1 47719U 21016A   25359.03664262 -.00000043  00000+0  00000+0 0  9997", "line2": "2 47719  63.1770  82.3163 7210339 269.1694  15.5374  2.00630507 35296"}}, "geometry": {"type": "Point", "coordinates": [145.93562924767306, 60.59266873325913]}}, {"type": "Feature", "properties": {"norad_id": 49008, "name": "FENGYUN 3E", "group": "weather", "lat": -48.7136345696392, "lon": 10.654865077814486, "alt_km": 832.9561494239342, "timestamp": "2025-12-26T04:40:05.430023+00:00", "meta": {"OBJECT_NAME": "FENGYUN 3E", "OBJECT_ID": "2021-062A", "EPOCH": "2025-12-25T23:49:37.807680", "MEAN_MOTION": 14.19881599, "ECCENTRICITY": 0.00010078, "INCLINATION": 98.7479, "RA_OF_ASC_NODE": 0.3565, "ARG_OF_PERICENTER": 188.7016, "MEAN_ANOMALY": 171.4143, "EPHEMERIS_TYPE": 0, "CLASSIFICATION_TYPE": "U", "NORAD_CAT_ID": 49008, "ELEMENT_SET_NO": 999, "REV_AT_EPOCH": 23200, "BSTAR": 4.5198367e-05, "MEAN_MOTION_DOT": 5.2e-07, "MEAN_MOTION_DDOT": 0}, "tle": {"line1": "1 49008U 21062A   25359.99279870  .00000052  00000+0  45198-4 0  9994", "line2": "2 49008  98.7479   0.3565 0001007 188.7016 171.4143 14.19881599232008"}}, "geometry": {"type": "Point", "coordinates": [10.654865077814486, -48.7136345696392]}}, {"type": "Feature", "properties": {"norad_id": 51850, "name": "GOES 18", "group": "weather", "lat": 0.00027892888177794207, "lon": 27.96004563721484, "alt_km": 35785.604101690784, "timestamp": "2025-12-26T04:40:05.430044+00:00", "meta": {"OBJECT_NAME": "GOES 18", "OBJECT_ID": "2022-021A", "EPOCH": "2025-12-25T12:22:38.764416", "MEAN_MOTION": 1.00271349, "ECCENTRICITY": 4.36e-05, "INCLINATION": 0.0208, "RA_OF_ASC_NODE": 187.5014, "ARG_OF_PERICENTER": 127.4929, "MEAN_ANOMALY": 187.9384, "EPHEMERIS_TYPE": 0, "CLASSIFICATION_TYPE": "U", "NORAD_CAT_ID": 51850, "ELEMENT_SET_NO": 999, "REV_AT_EPOCH": 485, "BSTAR": 0, "MEAN_MOTION_DOT": 1.18e-06, "MEAN_MOTION_DDOT": 0}, "tle": {"line1": "1 51850U 22021A   25359.51572644  .00000118  00000+0  00000+0 0  9992", "line2": "2 51850   0.0208 187.5014 0000436 127.4929 187.9384  1.00271349  4858"}}, "geometry": {"type": "Point", "coordinates": [27.96004563721484, 0.00027892888177794207]}}]}